#dP2021  7 29  0  0  0.00000000     289 d+D   IGb14 FIT AIUB
## 2168 345600.00000000   300.00000000 59424 0.0000000000000
+  117   G01G02G03G04G05G06G07G08G09G10G11G12G13G14G15G16G17
+        G18G19G20G21G22G23G24G25G26G27G28G29G30G31G32R01R02
+        R03R04R05R07R08R09R11R12R13R14R15R16R17R18R19R20R21
+        R22R24E01E02E03E04E05E07E08E09E11E12E13E14E15E18E19
+        E21E24E25E26E27E30E31E33E36C06C07C08C09C10C11C12C13
+        C14C16C19C20C21C22C23C24C25C26C27C28C29C30C32C33C34
+        C35C36C37C38C39C40C41C42C43C44C45C46J01J02J03  0  0
++         5  5  5  5  5  5  5  5  5  5  5  5  5  5  5  5  5
++         5  5  5  5  5  5  5  5  5  5  5  5  5  5  5  5  5
++         5  5  5  5  5  5  5  5  5  5  5  5  5  5  5  5  5
++         5  5  5  5  5  5  5  5  5  5  5  5  5  5  5  5  5
++         5  5  5  5  5  5  5  5  5  5  5  5  5  5  5  5  5
++         5  5  5  5  5  5  5  5  5  5  5  5  5  5  5  5  5
++         5  5  5  5  5  5  5  5  5  5  5  5  5  5  5  0  0
%c M  cc GPS ccc cccc cccc cccc cccc ccccc ccccc ccccc ccccc
%c cc cc ccc ccc cccc cccc cccc cccc ccccc ccccc ccccc ccccc
%f  1.2500000  1.025000000  0.00000000000  0.000000000000000
%f  0.0000000  0.000000000  0.00000000000  0.000000000000000
%i    0    0    0    0      0      0      0      0         0
%i    0    0    0    0      0      0      0      0         0
/* Center for Orbit Determination in Europe (CODE)                              
/* MGEX orbits and clocks for year-day 2021-2100                                
/* Middle day of a 3-day long-arc multi-GNSS solution                           
/* Systems considered: GPS/GLONASS/Galileo/BeiDou/QZSS                          
/* Product reference - DOI 10.7892/boris.75882.3                                
/* PCV:IGS14      OL/AL:FES2014b NONE     YN ORB:CoN CLK:CoN                    
*  2021  7 29 19 20  0.00000000
PG01   1291.830086  14948.501029 -22161.496969    613.389760
PG02  20358.428506 -14786.368177   9257.690580   -622.912005
PG03   8336.111517  21034.618133 -14093.031437   -236.217592
PG04    505.067666  24634.945767   9841.150855   -203.219741
PG05   2846.884169 -16538.887016  20384.262760    -49.442644
PG06  25725.664641  -6446.628270  -1879.653060     47.525602
PG07  16870.559897   9111.777111  18946.541730    213.576322
PG08  -6058.812763  25672.729391    820.004132    -30.621652
PG09   9334.844414  17154.163408  17929.381338   -357.212701
PG10 -21918.068658  -9102.782625 -12085.887016   -171.887068
PG11  22251.239286 -11601.420347   8679.551862     25.893520
PG12  -6560.869920 -21550.960118 -14426.653864    -75.493873
PG13  13232.672715 -21877.004033   6774.795587    164.225912
PG14  21495.641991   9191.148486 -12654.760014     35.860849
PG15   2922.042900 -26203.430695     24.111946   -132.087029
PG16  -9873.419936  11152.282012  21722.860426   -365.097318
PG17  14311.124980   2882.235673 -21761.148420    481.312926
PG18 -18699.719122  -7214.949897  17454.018304    337.280438
PG19  16473.752085  -6575.737182 -20001.176204     32.748408
PG20  13741.784833  -8995.196094  20797.598513    519.931424
PG21  -7194.712232  16720.499641 -18456.565195    134.196378
PG22   2038.955625  18764.083015 -18584.990579   -551.325414
PG23 -20598.586200 -16739.958029  -1675.910246     77.904199
PG24   3168.430732 -17172.500622 -20163.230652    191.644028
PG25 -16325.954274 -20468.665025  -5508.543425    182.088271
PG26 -18354.131339   2591.446961  19059.705164    116.456886
PG27 -12095.033337  20918.867808  10413.898190   -170.409883
PG28  19479.162017   4735.541150 -16779.987769    529.251594
PG29  -6196.571927 -19022.129789  17389.358648   -388.000740
PG30  24782.414537    691.757829   9918.975770   -456.381286
PG31 -25853.297923   7122.862070    -39.936417   -131.370563
PG32 -15588.862513    831.646245 -21353.904529     11.218989
PR01  12514.317492   7424.912691  20956.030796     83.021604
PR02   6353.844686 -14175.284483  20292.954455    487.830068
PR03  -2876.619522 -24461.210669   6781.993401     40.373092
PR04 -10254.691463 -20909.690196 -10387.642126     97.966666
PR05 -11937.607466  -5813.547305 -21773.428381     76.205656
PR07   3248.162033  24543.279817  -6013.065450    -41.860991
PR08  10403.263510  20781.070599  10547.590116    -60.145214
PR09 -15525.829340   5763.595374  19393.754853      5.400607
PR11  18795.005676  11334.251638  13027.168392     45.326899
PR12  24633.806876   4412.006932  -4867.907173    249.333664
PR13  16199.584747  -5117.091165 -19038.485329    -58.427856
PR14  -2524.575575 -11917.805613 -22390.086869     67.028352
PR15 -19039.026856 -11510.514080 -12446.403536    102.393496
PR16 -24655.388355  -3203.423281   5970.783814    -18.697321
PR17   8996.866814 -18327.514995  15262.883676    445.287562
PR18  -5142.681247  -9450.630714  23138.033241     85.100740
PR19 -16388.795126   3322.186380  19258.820008   -153.427877
PR20 -19432.749019  16372.279716   2007.134440    -53.286405
PR21  -8153.740332  17930.969819 -16233.462999   -227.577354
PR22   6020.314396   8596.914404 -23266.234436   -125.187250
PR24  18982.186424 -16977.693751  -1246.485927     52.409473
PE01  24628.757343   3119.923901 -16114.365344  -1160.507630
PE02 -24580.943656  -2996.812531  16227.624386    236.301238
PE03 -16999.124251   5401.524569 -23623.986280   -457.994729
PE04  10670.284117 -24189.124393  13316.061895   -823.791227
PE05 -13451.081347 -16901.331191 -20231.988678   -261.358105
PE07   2116.274594  29088.567685   5104.941264   -567.522424
PE08 -10280.239832  24495.160723 -13069.525590   5962.527780
PE09  -2333.324879 -29020.269055  -5287.137630   5583.881860
PE11   1171.032496 -17923.509732  23514.133383   5651.632310
PE12  20539.930193 -18490.516587  10610.178598   5086.613060
PE13  -1623.524192  18016.167761 -23433.199309    419.634484
PE14   1763.428798 -23637.490352   6131.535400  -1517.281130
PE15 -20462.912761  18539.219130 -10667.924641    800.833004
PE18   6800.506478  26126.021339 -17390.958358  -1663.440820
PE19  16990.268300  -2682.160406  24096.883194    339.115788
PE21  24486.460592  16613.344082    856.267489   -679.009648
PE24  -9146.757963 -21125.825437 -18620.797376  -1034.412600
PE25 -24407.463087 -16711.569751  -1042.202477   -541.555365
PE26  18876.792904   6440.839025 -21873.134277   1522.451620
PE27  10151.282075  21151.266371  18056.431103    -86.399121
PE30 -11154.088937  12487.562065  24407.362228   2744.405580
PE31  10033.600239 -13216.216884 -24498.507262   -483.807678
PE33  27208.115849  -8140.906935  -8351.435044   -466.996320
PE36 -18115.539255  -6891.341354  22366.944516   -241.168492
PC06 -19096.417536  37088.368923   4388.590139    687.884573
PC07  -7335.921811  30658.754086  28517.535660     68.006627
PC08 -19819.328959  18742.550715 -32157.731720   -911.881177
PC09  -9429.455498  36879.023489  17964.625455     13.177461
PC10   4173.935292  36566.464183  21224.288532    -13.799686
PC11  17351.547621    593.526345 -21780.212309    486.393634
PC12   4781.621704  17309.459031 -21339.908728    796.906176
PC13  -4283.290054  22524.400714 -35318.297812    354.529544
PC14  18644.667823  11540.746193  17317.275648    763.804092
PC16 -17982.413508  37610.986416   5635.679248   -889.984175
PC19 -17159.241114   -936.688381 -21959.172684    927.249926
PC20 -17348.189756 -18649.257317 -11350.368867   -832.105147
PC21   7118.000553  26167.504511  -6625.765723   -937.613060
PC22  -7036.872751  17945.271333 -20190.017955   -949.000382
PC23  16399.527696 -12114.233945 -19041.416693   -965.009161
PC24  22064.298711  11340.411382  12762.289766   -963.938698
PC25  27357.949776  -1739.082131  -5172.546988   -878.419351
PC26   5378.839080  16204.072874  22064.880842    871.784123
PC27   3046.095254 -22758.822716  15844.617306    572.299930
PC28  16749.379645 -22306.256953   -585.827661    -44.837731
PC29 -20270.051240   9537.050758  16631.858048    426.124817
PC30 -12418.401412  -9962.518115  22910.610415    475.652326
PC32  -7250.371665 -26098.367801   6696.861170   -927.074167
PC33  17240.725988    951.804939  21930.468936   -949.078594
PC34  12996.573262   9225.340479 -22919.772934   -617.027146
PC35 -16150.763316  22718.257370    946.743303   -164.316148
PC36 -27471.730313    869.476462   4850.922064   -737.521487
PC37  -3977.301847 -16345.418150 -22242.425854   -862.616717
PC38 -17471.346182  21678.046830 -31702.102816    164.967149
PC39 -15335.266865  38780.287998   5665.065700     32.638804
PC40    385.506840  34179.995312  24825.697702    185.216762
PC41   7300.197875 -17681.020109  20365.425513   -969.078726
PC42  17202.781063  19231.912687  10693.768677   -925.281762
PC43  20333.018793  -8858.819264 -16957.862835   -843.867395
PC44  -2315.773196  22961.567220 -15681.685296    314.296213
PC45 -16220.869210  12127.147045  19216.890093    506.515350
PC46 -22888.607873 -10675.599207 -11890.432749    156.322213
PJ01 -19519.773522  26855.114493 -21437.042588   -426.834178
PJ02 -27811.192393  20521.417425  29078.088575     -1.130358
PJ03 -33021.011069  26170.605870   8141.769679     -0.419614
EOF
